OBJECT_NAME,OBJECT_ID,EPOCH,MEAN_MOTION,ECCENTRICITY,INCLINATION,RA_OF_ASC_NODE,ARG_OF_PERICENTER,MEAN_ANOMALY,EPHEMERIS_TYPE,CLASSIFICATION_TYPE,NORAD_CAT_ID,ELEMENT_SET_NO,REV_AT_EPOCH,BSTAR,MEAN_MOTION_DOT,MEAN_MOTION_DDOT
SAR-LUPE 2,2007-030A,2026-07-20T06:50:13.239744,15.54181612,.00053465,98.1061,309.9478,202.3238,157.7782,0,U,31797,999,6207,.26082224E-3,.16879E-3,0
SAPPHIRE,2013-009C,2026-07-20T06:37:58.822464,14.35248368,.00118833,98.4279,19.9492,145.5785,214.6173,0,U,39088,999,70132,.28835434E-4,.4E-6,0
PRAETORIAN SDA_602,2025-203A,2026-07-20T03:14:00.367008,13.83888517,.00071397,81.3050,340.2641,106.3923,253.8019,0,U,65565,999,4325,.61752638E-4,.8E-6,0
PRAETORIAN SDA_603,2025-203B,2026-07-20T02:10:15.102912,13.83962649,.00107592,81.3055,340.2263,103.0438,257.1920,0,U,65566,999,4325,.14992848E-3,.178E-5,0
PRAETORIAN SDA_604,2025-203C,2026-07-20T03:08:59.386560,13.83050675,.0006675,81.3072,340.6524,110.2924,249.8950,0,U,65567,999,4323,.60303398E-4,.78E-6,0
PRAETORIAN SDA_605,2025-203D,2026-07-20T02:10:10.261056,13.83200683,.00093738,81.3037,340.3279,101.5912,258.6297,0,U,65568,999,4324,.59379728E-4,.77E-6,0
PRAETORIAN SDA_606,2025-203E,2026-07-20T01:48:49.362048,13.83200203,.00072399,81.3073,340.5816,104.9739,255.2219,0,U,65569,999,4323,.20272125E-4,.34E-6,0
PRAETORIAN SDA_607,2025-203F,2026-07-20T03:16:13.516320,13.83759020,.00100458,81.3057,340.1402,102.9985,257.2294,0,U,65570,999,4326,.11164631E-3,.136E-5,0
PRAETORIAN SDA_608,2025-203G,2026-07-19T21:38:23.830944,13.83819915,.00071316,81.3026,340.5191,109.3617,250.8311,0,U,65571,999,4321,.48777224E-4,.66E-6,0
PRAETORIAN SDA_609,2025-203H,2026-07-19T21:32:07.730880,13.84211185,.00080172,81.3069,340.5006,103.7071,256.4979,0,U,65572,999,4322,.10873739E-3,.133E-5,0
PRAETORIAN SDA_610,2025-203J,2026-07-20T07:38:35.125440,13.83528905,.00078744,81.3027,340.0987,107.8074,252.3942,0,U,65573,999,4327,.70940812E-4,.9E-6,0
PRAETORIAN SDA_611,2025-203K,2026-07-20T02:40:06.751200,13.83310369,.0006795,81.3032,340.4751,112.5190,247.6686,0,U,65574,999,4323,.10240236E-4,.23E-6,0
PRAETORIAN SDA_612,2025-203L,2026-07-19T21:57:56.658240,13.85041585,.00104084,81.3046,340.1619,103.7329,256.4988,0,U,65575,999,4324,.14442097E-3,.175E-5,0
PRAETORIAN SDA_613,2025-203M,2026-07-20T03:08:27.002976,13.82768236,.00068238,81.3019,340.4792,103.9248,256.2667,0,U,65576,999,4323,.56294385E-4,.73E-6,0
PRAETORIAN SDA_614,2025-203N,2026-07-20T03:03:23.875488,13.84778876,.00082861,81.3034,340.0513,101.7365,258.4722,0,U,65577,999,4327,.33245004E-4,.49E-6,0
PRAETORIAN SDA_615,2025-203P,2026-07-20T02:41:46.996800,13.84438988,.00101773,81.3042,340.0502,102.0560,258.1738,0,U,65578,999,4326,.97671944E-4,.121E-5,0
PRAETORIAN SDA_616,2025-203Q,2026-07-19T21:27:55.023840,13.83270374,.00066477,81.3082,340.8422,111.1019,249.0849,0,U,65579,999,4320,.13229558E-3,.157E-5,0
PRAETORIAN SDA_617,2025-203R,2026-07-20T03:15:32.682816,13.83152643,.00085315,81.3056,340.4474,102.0547,258.1565,0,U,65580,999,4324,.53673451E-4,.71E-6,0
PRAETORIAN SDA_618,2025-203S,2026-07-19T20:43:35.493600,13.84226019,.00108998,81.3041,340.2140,105.4697,254.7665,0,U,65581,999,4323,.11073464E-3,.136E-5,0
PRAETORIAN SDA_619,2025-203T,2026-07-20T03:06:15.026112,13.83806337,.00093668,81.3064,340.3007,102.7596,257.4608,0,U,65582,999,4388,.12947733E-3,.155E-5,0
PRAETORIAN SDA_620,2025-203U,2026-07-19T21:03:12.747168,13.83208151,.00086303,81.3050,340.5691,100.6207,259.5921,0,U,65583,999,4321,.21060589E-3,.243E-5,0
PRAETORIAN SDA_621,2025-203V,2026-07-19T21:56:33.155232,13.83804388,.00085247,81.3039,340.4304,97.8592,262.3533,0,U,65584,999,4322,.58742122E-4,.77E-6,0
PRAETORIAN SDA_601,2025-203W,2026-07-20T02:48:19.934496,13.83170051,.0006735,81.3064,340.5774,113.5334,246.6531,0,U,65585,999,4323,.33949436E-3,.384E-5,0
VICTUS HAZE PUMA,2026-142A,2026-07-19T06:11:59.220384,15.21137439,.0026471,97.4459,97.5147,252.2212,107.6135,0,U,69646,999,454,.82930199E-4,.1791E-4,0
