SAR-LUPE 2              
1 31797U 07030A   26201.28487546  .00016879  00000+0  26082-3 0  9993
2 31797  98.1061 309.9478 0005346 202.3238 157.7782 15.54181612 62078
SAPPHIRE                
1 39088U 13009C   26201.27637526  .00000040  00000+0  28835-4 0  9993
2 39088  98.4279  19.9492 0011883 145.5785 214.6173 14.35248368701320
PRAETORIAN SDA_602      
1 65565U 25203A   26201.13472647  .00000080  00000+0  61753-4 0  9997
2 65565  81.3050 340.2641 0007139 106.3923 253.8019 13.83888517 43254
PRAETORIAN SDA_603      
1 65566U 25203B   26201.09045258  .00000178  00000+0  14993-3 0  9998
2 65566  81.3055 340.2263 0010759 103.0438 257.1920 13.83962649 43254
PRAETORIAN SDA_604      
1 65567U 25203C   26201.13124290  .00000078  00000+0  60303-4 0  9994
2 65567  81.3072 340.6524 0006675 110.2924 249.8950 13.83050675 43236
PRAETORIAN SDA_605      
1 65568U 25203D   26201.09039654  .00000077  00000+0  59380-4 0  9991
2 65568  81.3037 340.3279 0009373 101.5912 258.6297 13.83200683 43249
PRAETORIAN SDA_606      
1 65569U 25203E   26201.07557132  .00000034  00000+0  20272-4 0  9997
2 65569  81.3073 340.5816 0007239 104.9739 255.2219 13.83200203 43236
PRAETORIAN SDA_607      
1 65570U 25203F   26201.13626755  .00000136  00000+0  11165-3 0  9997
2 65570  81.3057 340.1402 0010045 102.9985 257.2294 13.83759020 43261
PRAETORIAN SDA_608      
1 65571U 25203G   26200.90166471  .00000066  00000+0  48777-4 0  9998
2 65571  81.3026 340.5191 0007131 109.3617 250.8311 13.83819915 43216
PRAETORIAN SDA_609      
1 65572U 25203H   26200.89731170  .00000133  00000+0  10874-3 0  9992
2 65572  81.3069 340.5006 0008017 103.7071 256.4979 13.84211185 43224
PRAETORIAN SDA_610      
1 65573U 25203J   26201.31846210  .00000090  00000+0  70941-4 0  9997
2 65573  81.3027 340.0987 0007874 107.8074 252.3942 13.83528905 43270
PRAETORIAN SDA_611      
1 65574U 25203K   26201.11118925  .00000023  00000+0  10240-4 0  9993
2 65574  81.3032 340.4751 0006795 112.5190 247.6686 13.83310369 43234
PRAETORIAN SDA_612      
1 65575U 25203L   26200.91523910  .00000175  00000+0  14442-3 0  9990
2 65575  81.3046 340.1619 0010408 103.7329 256.4988 13.85041585 43249
PRAETORIAN SDA_613      
1 65576U 25203M   26201.13086809  .00000073  00000+0  56294-4 0  9996
2 65576  81.3019 340.4792 0006823 103.9248 256.2667 13.82768236 43230
PRAETORIAN SDA_614      
1 65577U 25203N   26201.12735967  .00000049  00000+0  33245-4 0  9996
2 65577  81.3034 340.0513 0008286 101.7365 258.4722 13.84778876 43279
PRAETORIAN SDA_615      
1 65578U 25203P   26201.11234950  .00000121  00000+0  97672-4 0  9997
2 65578  81.3042 340.0502 0010177 102.0560 258.1738 13.84438988 43260
PRAETORIAN SDA_616      
1 65579U 25203Q   26200.89438685  .00000157  00000+0  13230-3 0  9999
2 65579  81.3082 340.8422 0006647 111.1019 249.0849 13.83270374 43209
PRAETORIAN SDA_617      
1 65580U 25203R   26201.13579494  .00000071  00000+0  53673-4 0  9994
2 65580  81.3056 340.4474 0008531 102.0547 258.1565 13.83152643 43242
PRAETORIAN SDA_618      
1 65581U 25203S   26200.86360525  .00000136  00000+0  11073-3 0  9996
2 65581  81.3041 340.2140 0010899 105.4697 254.7665 13.84226019 43230
PRAETORIAN SDA_619      
1 65582U 25203T   26201.12934058  .00000155  00000+0  12948-3 0  9998
2 65582  81.3064 340.3007 0009366 102.7596 257.4608 13.83806337 43888
PRAETORIAN SDA_620      
1 65583U 25203U   26200.87723087  .00000243  00000+0  21061-3 0  9992
2 65583  81.3050 340.5691 0008630 100.6207 259.5921 13.83208151 43212
PRAETORIAN SDA_621      
1 65584U 25203V   26200.91427263  .00000077  00000+0  58742-4 0  9997
2 65584  81.3039 340.4304 0008524  97.8592 262.3533 13.83804388 43222
PRAETORIAN SDA_601      
1 65585U 25203W   26201.11689739  .00000384  00000+0  33949-3 0  9991
2 65585  81.3064 340.5774 0006735 113.5334 246.6531 13.83170051 43232
VICTUS HAZE PUMA        
1 69646U 26142A   26200.25832431  .00001791  00000+0  82930-4 0  9997
2 69646  97.4459  97.5147 0026471 252.2212 107.6135 15.21137439  4542
